NORAD_CAT_ID,OBJECT_NAME,OBJECT_TYPE,EPOCH,MEAN_MOTION,ECCENTRICITY,INCLINATION,RA_OF_ASC_NODE,ARG_OF_PERICENTER,MEAN_ANOMALY,BSTAR,MEAN_MOTION_DOT,MEAN_MOTION_DDOT,TLE_LINE0,TLE_LINE1,TLE_LINE2,SEMIMAJOR_AXIS,PERIOD,APOGEE,PERIGEE,DECAYED
50176.0,STARLINK-3293,PAYLOAD,2024-04-26 21:05:41,15.08858741,0.0001278,53.2185,69.8905,67.1487,292.964,0.001185,0.00018631,0.0,0 STARLINK-3293,1 50176U 21125W   24117.87895094  .00018631  00000-0  11850-2 0  9991,2 50176  53.2185  69.8905 0001278  67.1487 292.9640 15.08858741130589,6917.823,95.436,540.572,538.804,0.0
50176.0,STARLINK-3293,PAYLOAD,2024-04-27 06:37:59,15.0887017,0.0001365,53.2181,68.1044,88.685,271.4298,0.0018087,0.00028639,0.0,0 STARLINK-3293,1 50176U 21125W   24118.27638641  .00028639  00000-0  18087-2 0  9997,2 50176  53.2181  68.1044 0001365  88.6850 271.4298 15.08870170133775,6917.788,95.436,540.597,538.709,0.0
50176.0,STARLINK-3293,PAYLOAD,2024-04-28 03:18:01,15.08834036,0.0001316,53.2172,64.2369,71.6964,288.4171,0.00090754,0.00014183,0.0,0 STARLINK-3293,1 50176U 21125W   24119.13751863  .00014183  00000-0  90754-3 0  9996,2 50176  53.2172  64.2369 0001316  71.6964 288.4171 15.08834036130772,6917.899,95.438,540.674,538.853,0.0
50176.0,STARLINK-3293,PAYLOAD,2024-04-28 12:50:20,15.08834867,0.0001278,53.217,62.4534,68.4269,291.6859,0.00059127,9.133e-05,0.0,0 STARLINK-3293,1 50176U 21125W   24119.53496059  .00009133  00000-0  59127-3 0  9991,2 50176  53.2170  62.4534 0001278  68.4269 291.6859 15.08834867133968,6917.896,95.438,540.645,538.877,0.0
50176.0,STARLINK-3293,PAYLOAD,2024-04-28 20:47:16,15.08836128,0.0001368,53.2179,60.9678,73.1725,286.9417,0.00049167,7.545e-05,0.0,0 STARLINK-3293,1 50176U 21125W   24119.86616268  .00007545  00000-0  49167-3 0  9991,2 50176  53.2179  60.9678 0001368  73.1725 286.9417 15.08836128130886,6917.892,95.438,540.704,538.811,0.0
50176.0,STARLINK-3293,PAYLOAD,2024-04-29 12:41:07,15.08850731,0.0001177,53.217,57.9935,77.581,282.5314,0.00054195,8.35e-05,0.0,0 STARLINK-3293,1 50176U 21125W   24120.52855701  .00008350  00000-0  54195-3 0  9995,2 50176  53.2170  57.9935 0001177  77.5810 282.5314 15.08850731134114,6917.848,95.437,540.527,538.898,0.0
50176.0,STARLINK-3293,PAYLOAD,2024-04-29 20:38:03,15.08844231,0.0002042,53.2187,56.5086,89.7966,270.326,0.00022602,3.311e-05,0.0,0 STARLINK-3293,1 50176U 21125W   24120.85976038  .00003311  00000-0  22602-3 0  9998,2 50176  53.2187  56.5086 0002042  89.7966 270.3260 15.08844231134161,6917.867,95.437,541.145,538.32,0.0
50176.0,STARLINK-3293,PAYLOAD,2024-04-30 02:59:35,15.08848232,0.0001337,53.2168,55.3182,83.275,276.8395,0.00026371,3.912e-05,0.0,0 STARLINK-3293,1 50176U 21125W   24121.12471728  .00003912  00000-0  26371-3 0  9999,2 50176  53.2168  55.3182 0001337  83.2750 276.8395 15.08848232131072,6917.855,95.437,540.645,538.795,0.0
50176.0,STARLINK-3293,PAYLOAD,2024-04-30 12:31:54,15.0884353,0.0001252,53.2165,53.5343,83.8862,276.2273,9.1758e-05,1.173e-05,0.0,0 STARLINK-3293,1 50176U 21125W   24121.52215710  .00001173  00000-0  91758-4 0  9999,2 50176  53.2165  53.5343 0001252  83.8862 276.2273 15.08843530134263,6917.87,95.437,540.601,538.868,0.0
50176.0,STARLINK-3293,PAYLOAD,2024-05-01 12:22:41,15.08847365,0.0001431,53.2171,49.0724,82.0322,278.0833,0.00015038,2.107e-05,0.0,0 STARLINK-3293,1 50176U 21125W   24122.51575526  .00002107  00000-0  15038-3 0  9997,2 50176  53.2171  49.0724 0001431  82.0322 278.0833 15.08847365134413,6917.858,95.437,540.713,538.733,0.0
50176.0,STARLINK-3293,PAYLOAD,2024-05-01 18:44:13,15.08846785,0.0001503,53.2165,47.8852,77.7187,282.3974,0.00021662,3.162e-05,0.0,0 STARLINK-3293,1 50176U 21125W   24122.78071596  .00003162  00000-0  21662-3 0  9996,2 50176  53.2165  47.8852 0001503  77.7187 282.3974 15.08846785131320,6917.86,95.437,540.764,538.685,0.0
50176.0,STARLINK-3293,PAYLOAD,2024-05-02 12:13:28,15.08846557,0.0001362,53.2166,44.6145,87.8461,272.2687,0.00012273,1.666e-05,0.0,0 STARLINK-3293,1 50176U 21125W   24123.50935404  .00001666  00000-0  12273-3 0  9999,2 50176  53.2166  44.6145 0001362  87.8461 272.2687 15.08846557134566,6917.86,95.437,540.668,538.783,0.0
50176.0,STARLINK-3293,PAYLOAD,2024-05-02 18:35:00,15.08844629,0.0001589,53.2164,43.4257,80.1395,279.9777,0.00010802,1.432e-05,0.0,0 STARLINK-3293,1 50176U 21125W   24123.77431595  .00001432  00000-0  10802-3 0  9997,2 50176  53.2164  43.4257 0001589  80.1395 279.9777 15.08844629131477,6917.866,95.437,540.83,538.632,0.0
50176.0,STARLINK-3293,PAYLOAD,2024-05-03 04:07:18,15.08857504,0.0001424,53.2173,41.6379,88.3899,271.7256,0.0002387,3.515e-05,0.0,0 STARLINK-3293,1 50176U 21125W   24124.17174670  .00003515  00000-0  23870-3 0  9993,2 50176  53.2173  41.6379 0001424  88.3899 271.7256 15.08857504131534,6917.827,95.436,540.677,538.707,0.0
50176.0,STARLINK-3293,PAYLOAD,2024-05-03 12:04:15,15.08841706,0.0001833,53.217,40.1524,79.8631,280.2568,2.8647e-05,1.68e-06,0.0,0 STARLINK-3293,1 50176U 21125W   24124.50295538  .00000168  00000-0  28647-4 0  9996,2 50176  53.2170  40.1524 0001833  79.8631 280.2568 15.08841706131583,6917.875,95.437,541.008,538.472,0.0
50176.0,STARLINK-3293,PAYLOAD,2024-05-03 21:36:34,15.08839574,0.0001568,53.2161,38.3676,86.7297,273.3874,3.429e-05,2.58e-06,0.0,0 STARLINK-3293,1 50176U 21125W   24124.90039552  .00000258  00000-0  34290-4 0  9993,2 50176  53.2161  38.3676 0001568  86.7297 273.3874 15.08839574134777,6917.882,95.438,540.831,538.662,0.0
50176.0,STARLINK-3293,PAYLOAD,2024-05-04 21:27:21,15.08836248,0.0001467,53.2183,33.9064,89.235,270.881,6.4887e-05,7.45e-06,0.0,0 STARLINK-3293,1 50176U 21125W   24125.89399947  .00000745  00000-0  64887-4 0  9995,2 50176  53.2183  33.9064 0001467  89.2350 270.8810 15.08836248131795,6917.892,95.438,540.772,538.742,0.0
50176.0,STARLINK-3293,PAYLOAD,2024-05-05 03:48:53,15.08841332,0.0001421,53.2179,32.7158,89.7321,270.3834,4.7574e-05,4.69e-06,0.0,0 STARLINK-3293,1 50176U 21125W   24126.15895708  .00000469  00000-0  47574-4 0  9998,2 50176  53.2179  32.7158 0001421  89.7321 270.3834 15.08841332134967,6917.876,95.437,540.724,538.758,0.0
50176.0,STARLINK-3293,PAYLOAD,2024-05-05 22:53:31,15.0884197,0.0001373,53.2181,29.1475,87.3638,272.7511,0.00020247,2.936e-05,0.0,0 STARLINK-3293,1 50176U 21125W   24126.95383771  .00002936  00000-0  20247-3 0  9996,2 50176  53.2181  29.1475 0001373  87.3638 272.7511 15.08841970135083,6917.874,95.437,540.689,538.79,0.0
50176.0,STARLINK-3293,PAYLOAD,2024-05-06 00:28:54,15.088445,0.0001349,53.2182,28.8551,84.8634,275.2512,0.00025101,3.71e-05,0.0,0 STARLINK-3293,1 50176U 21125W   24127.02007682  .00003710  00000-0  25101-3 0  9994,2 50176  53.2182  28.8551 0001349  84.8634 275.2512 15.08844500131960,6917.867,95.437,540.665,538.798,0.0
50176.0,STARLINK-3293,PAYLOAD,2024-05-06 10:01:13,15.08847955,0.0001242,53.2175,27.0677,75.6511,284.4619,0.00019815,2.868e-05,0.0,0 STARLINK-3293,1 50176U 21125W   24127.41751357  .00002868  00000-0  19815-3 0  9990,2 50176  53.2175  27.0677 0001242  75.6511 284.4619 15.08847955135158,6917.856,95.437,540.58,538.862,0.0
50176.0,STARLINK-3293,PAYLOAD,2024-05-06 22:44:18,15.08848962,0.0001315,53.2178,24.6919,89.3255,270.7888,0.00014889,2.083e-05,0.0,0 STARLINK-3293,1 50176U 21125W   24127.94743239  .00002083  00000-0  14889-3 0  9993,2 50176  53.2178  24.6919 0001315  89.3255 270.7888 15.08848962135235,6917.853,95.437,540.628,538.808,0.0
50176.0,STARLINK-3293,PAYLOAD,2024-05-07 03:30:27,15.08855264,0.0001438,53.2181,23.7961,96.0836,264.032,0.00023796,3.503e-05,0.0,0 STARLINK-3293,1 50176U 21125W   24128.14614804  .00003503  00000-0  23796-3 0  9996,2 50176  53.2181  23.7961 0001438  96.0836 264.0320 15.08855264132138,6917.834,95.437,540.694,538.704,0.0
50176.0,STARLINK-3293,PAYLOAD,2024-05-07 09:52:00,15.08844823,0.0001452,53.2182,22.6084,81.5541,278.5615,0.00027903,4.156e-05,0.0,0 STARLINK-3293,1 50176U 21125W   24128.41111401  .00004156  00000-0  27903-3 0  9990,2 50176  53.2182  22.6084 0001452  81.5541 278.5615 15.08844823132171,6917.866,95.437,540.735,538.726,0.0
50176.0,STARLINK-3293,PAYLOAD,2024-05-07 20:59:42,15.08829327,0.0001632,53.2193,20.531,91.28,268.8379,-0.00017646,-3.094e-05,0.0,0 STARLINK-3293,1 50176U 21125W   24128.87480308 -.00003094  00000-0 -17646-3 0  9990,2 50176  53.2193  20.5310 0001632  91.2800 268.8379 15.08829327132247,6917.913,95.438,540.907,538.649,0.0
50176.0,STARLINK-3293,PAYLOAD,2024-05-07 22:35:06,15.08829561,0.0001586,53.2189,20.234,94.1746,265.9428,-0.00019832,-3.442e-05,0.0,0 STARLINK-3293,1 50176U 21125W   24128.94104338 -.00003442  00000-0 -19832-3 0  9990,2 50176  53.2189  20.2340 0001586  94.1746 265.9428 15.08829561135382,6917.912,95.438,540.874,538.68,0.0
50176.0,STARLINK-3293,PAYLOAD,2024-05-08 01:45:51,15.08839593,0.0001154,53.2169,19.6363,102.5219,257.5902,-9.7802e-06,-4.43e-06,0.0,0 STARLINK-3293,1 50176U 21125W   24129.07351741 -.00000443  00000-0 -97802-5 0  9990,2 50176  53.2169  19.6363 0001154 102.5219 257.5902 15.08839593132272,6917.882,95.438,540.545,538.948,0.0
50176.0,STARLINK-3293,PAYLOAD,2024-05-08 09:42:48,15.08831272,0.0001282,53.2179,18.1472,86.2097,273.9042,-9.0427e-05,-1.726e-05,0.0,0 STARLINK-3293,1 50176U 21125W   24129.40472377 -.00001726  00000-0 -90427-4 0  9996,2 50176  53.2179  18.1472 0001282  86.2097 273.9042 15.08831272132321,6917.907,95.438,540.659,538.885,0.0
50176.0,STARLINK-3293,PAYLOAD,2024-05-08 22:25:53,15.08842631,0.0001346,53.2172,15.768,88.259,271.8557,3.6393e-05,2.91e-06,0.0,0 STARLINK-3293,1 50176U 21125W   24129.93464139  .00000291  00000-0  36393-4 0  9997,2 50176  53.2172  15.7680 0001346  88.2590 271.8557 15.08842631135534,6917.872,95.437,540.668,538.806,0.0
50176.0,STARLINK-3293,PAYLOAD,2024-05-09 01:36:39,15.08848073,0.0001337,53.2166,15.1723,99.072,261.0424,0.00010324,1.356e-05,0.0,0 STARLINK-3293,1 50176U 21125W   24130.06711867  .00001356  00000-0  10324-3 0  9994,2 50176  53.2166  15.1723 0001337  99.0720 261.0424 15.08848073132429,6917.856,95.437,540.646,538.796,0.0
